COMMENT,ORIGINATOR,NORAD_CAT_ID,OBJECT_NAME,OBJECT_TYPE,CLASSIFICATION_TYPE,INTLDES,EPOCH,EPOCH_MICROSECONDS,MEAN_MOTION,ECCENTRICITY,INCLINATION,RA_OF_ASC_NODE,ARG_OF_PERICENTER,MEAN_ANOMALY,EPHEMERIS_TYPE,ELEMENT_SET_NO,REV_AT_EPOCH,BSTAR,MEAN_MOTION_DOT,MEAN_MOTION_DDOT,FILE,TLE_LINE0,TLE_LINE1,TLE_LINE2,OBJECT_ID,OBJECT_NUMBER,SEMIMAJOR_AXIS,PERIOD,APOGEE,PERIGEE
"GENERATED VIA SPACETRACK.ORG API","JSPOC","23943","APSTAR 1A","PAYLOAD","U","96039A","2016-01-08 07:32:47","514912","0.99192857","0.0023926","8.3448","44.2661","248.1025","124.7336","0","999","7140","0","-3.7e-07","0","1977652","0 APSTAR 1A","1 23943U 96039A   16008.31443883 -.00000037  00000-0  00000+0 0  9997","2 23943   8.3448  44.2661 0023926 248.1025 124.7336  0.99192857 71405","1996-039A","23943","42469.932","1451.717","36193.411","35990.184"
"GENERATED VIA SPACETRACK.ORG API","JSPOC","26101","SL-12 R/B(2)","ROCKET BODY","U","00013D","2016-01-08 07:33:00","506880","1.00756535","0.0005182","12.5449","34.024","312.471","69.0168","0","999","5824","0","1.12e-06","0","1977642","0 SL-12 R/B(2)","1 26101U 00013D   16008.31458920  .00000112  00000-0  00000+0 0  9994","2 26101  12.5449  34.0240 0005182 312.4710  69.0168  1.00756535 58245","2000-013D","26101","42029.384","1429.187","35673.028","35629.469"
"GENERATED VIA SPACETRACK.ORG API","JSPOC","2222","TITAN 3C TRANSTAGE R/B","ROCKET BODY","U","66053J","2016-01-08 07:33:52","989696","1.06720381","0.016187","1.4434","50.1113","87.5084","279.3617","0","999","8981","0","-7.6e-07","0","1977602","0 TITAN 3C TRANSTAGE R/B","1 02222U 66053J   16008.31519664 -.00000076  00000-0  00000+0 0  9991","2 02222   1.4434  50.1113 0161870  87.5084 279.3617  1.06720381 89811","1966-053J","2222","40448.609","1349.320","34725.216","33415.732"
"GENERATED VIA SPACETRACK.ORG API","JSPOC","28628","INMARSAT 4-F1","PAYLOAD","U","05009A","2016-01-08 07:35:54","502656","1.00271655","0.0003256","2.8031","4.6442","282.7352","77.3901","0","999","3945","0","-2.54e-06","0","1978174","0 INMARSAT 4-F1","1 28628U 05009A   16008.31660304 -.00000254  00000-0  00000+0 0  9999","2 28628   2.8031   4.6442 0003256 282.7352  77.3901  1.00271655 39452","2005-009A","28628","42164.768","1436.098","35800.362","35772.904"
"GENERATED VIA SPACETRACK.ORG API","JSPOC","28628","INMARSAT 4-F1","PAYLOAD","U","05009A","2016-01-08 07:35:54","502656","1.00271655","0.0003256","2.8031","4.6442","282.7352","77.3901","0","999","3944","0","-2.54e-06","0","1978186","0 INMARSAT 4-F1","1 28628U 05009A   16008.31660304 -.00000254 +00000-0 +00000-0 0  9990","2 28628 002.8031 004.6442 0003256 282.7352 077.3901 01.00271655039441","2005-009A","28628","42164.768","1436.098","35800.362","35772.904"
"GENERATED VIA SPACETRACK.ORG API","JSPOC","13766","COSMOS 1434","PAYLOAD","U","83002F","2016-01-08 07:36:45","420768","12.53766627","0.0024096","74.0232","244.405","245.3387","161.9278","0","999","50918","0.00015435","8e-08","0","1977609","0 COSMOS 1434","1 13766U 83002F   16008.31719237  .00000008  00000-0  15435-3 0  9993","2 13766  74.0232 244.4050 0024096 245.3387 161.9278 12.53766627509187","1983-002F","13766","7826.916","114.853","1467.641","1429.921"
"GENERATED VIA SPACETRACK.ORG API","JSPOC","40896","BLOCK DM-SL R/B","ROCKET BODY","U","15048B","2016-01-08 07:36:52","153056","0.98656353","0.0097882","0.2581","84.0792","51.6657","225.0449","0","999","115","0","-2.23e-06","0","1977693","0 BLOCK DM-SL R/B","1 40896U 15048B   16008.31727029 -.00000223  00000-0  00000+0 0  9998","2 40896   0.2581  84.0792 0097882  51.6657 225.0449  0.98656353  1157","2015-048B","40896","42623.764","1459.612","36662.839","35828.419"
"GENERATED VIA SPACETRACK.ORG API","JSPOC","11876","COSMOS 1193","PAYLOAD","U","80058B","2016-01-08 07:36:56","952576","12.54896634","0.0039691","74.0155","188.1179","258.2404","168.3956","0","999","62645","4.3352e-05","-9e-08","0","1977626","0 COSMOS 1193","1 11876U 80058B   16008.31732584 -.00000009  00000-0  43352-4 0  9993","2 11876  74.0155 188.1179 0039691 258.2404 168.3956 12.54896634626454","1980-058B","11876","7822.217","114.750","1475.129","1413.035"
"GENERATED VIA SPACETRACK.ORG API","JSPOC","15098","SL-6 R/B(2)","ROCKET BODY","U","84071D","2016-01-08 07:37:10","392960","2.04062973","0.577184","69.079","234.1711","58.8901","49.6685","0","999","23486","0","6.36e-06","0","1978186","0 SL-6 R/B(2)","1 15098U 84071D   16008.31748140 +.00000636 +00000-0 +00000-0 0  9991","2 15098 069.0790 234.1711 5771840 058.8901 049.6685 02.04062973234862","1984-071D","15098","26255.826","705.664","35032.135","4723.248"
"GENERATED VIA SPACETRACK.ORG API","JSPOC","25756","KITSAT 3","PAYLOAD","U","99029A","2016-01-08 07:37:28","174080","14.53565263","0.0014839","98.4208","279.6761","57.1677","303.0946","0","999","88109","3.1404e-05","8.5e-07","0","1977648","0 KITSAT 3","1 25756U 99029A   16008.31768720  .00000085  00000-0  31404-4 0  9992","2 25756  98.4208 279.6761 0014839  57.1677 303.0946 14.53565263881095","1999-029A","25756","7092.164","99.066","724.553","703.505"
"GENERATED VIA SPACETRACK.ORG API","JSPOC","36111","COSMOS 2456 (GLONASS)","PAYLOAD","U","09070A","2016-01-08 07:39:03","391200","2.13102944","0.0003572","64.1863","201.5768","349.71","165.989","0","999","4721","0","1.14e-06","0","1977666","0 COSMOS 2456 (GLONASS)","1 36111U 09070A   16008.31878925  .00000114  00000-0  00000+0 0  9991","2 36111  64.1863 201.5768 0003572 349.7100 165.9890  2.13102944 47210","2009-070A","36111","25507.949","675.729","19138.925","19120.702"
"GENERATED VIA SPACETRACK.ORG API","JSPOC","25666","INSAT 2E (APR-1)","PAYLOAD","U","99016A","2016-01-08 07:40:13","280160","0.9966031","0.000931","4.3462","64.0121","182.7866","164.729","0","999","6143","0","6e-08","0","1977714","0 INSAT 2E (APR-1)","1 25666U 99016A   16008.31959815  .00000006  00000-0  00000+0 0  9991","2 25666   4.3462  64.0121 0009310 182.7866 164.7290  0.99660310 61438","1999-016A","25666","42337.026","1444.908","35998.307","35919.475"
"GENERATED VIA SPACETRACK.ORG API","JSPOC","38733","COSMOS 2481","PAYLOAD","U","12041A","2016-01-08 07:40:23","849472","12.4236364","0.0019231","82.4761","292.2081","96.7913","263.5354","0","999","15636","0.00017563","3.4e-07","0","1977686","0 COSMOS 2481","1 38733U 12041A   16008.31972048  .00000034  00000-0  17563-3 0  9993","2 38733  82.4761 292.2081 0019231  96.7913 263.5354 12.42363640156369","2012-041A","38733","7874.736","115.908","1511.745","1481.457"
"GENERATED VIA SPACETRACK.ORG API","JSPOC","18313","SL-14 R/B","ROCKET BODY","U","87068B","2016-01-08 07:42:08","994816","13.8415646","0.0009507","82.5583","86.3435","346.5209","13.5696","0","999","43456","1.6222e-05","3.3e-07","0","1977611","0 SL-14 R/B","1 18313U 87068B   16008.32093744  .00000033  00000-0  16222-4 0  9995","2 18313  82.5583  86.3435 0009507 346.5209  13.5696 13.84156460434568","1987-068B","18313","7327.318","104.034","956.149","942.217"
"GENERATED VIA SPACETRACK.ORG API","JSPOC","32290","CZ-4C R/B","ROCKET BODY","U","07055B","2016-01-08 07:42:16","412256","15.30814799","0.007318","97.5326","99.4071","201.6962","158.1175","0","999","45125","0.00017002","5.411e-05","0","1977643","0 CZ-4C R/B","1 32290U 07055B   16008.32102329  .00005411  00000-0  17002-3 0  9994","2 32290  97.5326  99.4071 0073180 201.6962 158.1175 15.30814799451257","2007-055B","32290","6851.517","94.067","523.521","423.242"
"GENERATED VIA SPACETRACK.ORG API","JSPOC","23455","NOAA 14","PAYLOAD","U","94089A","2016-01-08 07:42:34","552800","14.1406497","0.0008946","98.7372","90.4072","210.2573","191.2431","0","999","8452","2.7182e-05","8e-08","0","1977712","0 NOAA 14","1 23455U 94089A   16008.32123325  .00000008  00000-0  27182-4 0  9997","2 23455  98.7372  90.4072 0008946 210.2573 191.2431 14.14064970 84522","1994-089A","23455","7223.631","101.834","851.959","839.034"
"GENERATED VIA SPACETRACK.ORG API","JSPOC","36407","SL-12 R/B(AUX MOTOR)","ROCKET BODY","U","10007H","2016-01-08 07:44:57","832512","4.23374565","0.5525938","65.3928","113.8052","91.9626","328.7977","0","999","8974","-0.00066882","3e-08","0","1978186","0 SL-12 R/B(AUX MOTOR)","1 36407U 10007H   16008.32289158 +.00000003 +00000-0 -66882-3 0  9998","2 36407 065.3928 113.8052 5525938 091.9626 328.7977 04.23374565089745","2010-007H","36407","16140.562","340.124","18681.602","843.252"
"GENERATED VIA SPACETRACK.ORG API","JSPOC","35498","COSMOS 2451","PAYLOAD","U","09036A","2016-01-08 07:46:12","945216","12.40813343","0.0005924","82.4885","298.078","209.9008","150.1735","0","999","29482","0.00015519","3.1e-07","0","1977692","0 COSMOS 2451","1 35498U 09036A   16008.32376094  .00000031  00000-0  15519-3 0  9994","2 35498  82.4885 298.0780 0005924 209.9008 150.1735 12.40813343294824","2009-036A","35498","7881.294","116.052","1507.828","1498.490"
"GENERATED VIA SPACETRACK.ORG API","JSPOC","33749","NSS 9","PAYLOAD","U","09008A","2016-01-08 07:47:38","304960","1.00272681","0.0001818","0.0175","350.251","295.379","121.6613","0","999","2533","0","7.9e-07","0","1977669","0 NSS 9","1 33749U 09008A   16008.32474890  .00000079  00000-0  00000+0 0  9990","2 33749   0.0175 350.2510 0001818 295.3790 121.6613  1.00272681 25330","2009-008A","33749","42164.480","1436.084","35794.011","35778.680"
"GENERATED VIA SPACETRACK.ORG API","JSPOC","39741","NAVSTAR 70 (USA 251)","PAYLOAD","U","14026A","2016-01-08 07:50:16","103328","2.00570427","0.0004102","55.198","121.2801","240.5506","119.3884","0","999","1204","0","-1e-07","0","1977716","0 NAVSTAR 70 (USA 251)","1 39741U 14026A   16008.32657527 -.00000010  00000-0  00000+0 0  9990","2 39741  55.1980 121.2801 0004102 240.5506 119.3884  2.00570427 12046","2014-026A","39741","26559.745","717.952","20192.505","20170.715"
